[{"OBJECT_NAME":"STARLINK-34974","OBJECT_ID":"2025-176Z","EPOCH":"2026-03-09T12:01:51.623616","MEAN_MOTION":15.30183839,"ECCENTRICITY":0.00011865,"INCLINATION":53.1594,"RA_OF_ASC_NODE":153.4555,"ARG_OF_PERICENTER":69.6501,"MEAN_ANOMALY":290.4627,"EPHEMERIS_TYPE":0,"CLASSIFICATION_TYPE":"U","NORAD_CAT_ID":65221,"ELEMENT_SET_NO":999,"REV_AT_EPOCH":3309,"BSTAR":0.00079574997,"MEAN_MOTION_DOT":0.00023271,"MEAN_MOTION_DDOT":0},{"OBJECT_NAME":"KSLV-II R\/B","OBJECT_ID":"2023-072H","EPOCH":"2026-03-09T20:13:26.441760","MEAN_MOTION":15.33109439,"ECCENTRICITY":0.00241884,"INCLINATION":97.4991,"RA_OF_ASC_NODE":274.152,"ARG_OF_PERICENTER":318.2938,"MEAN_ANOMALY":41.646,"EPHEMERIS_TYPE":0,"CLASSIFICATION_TYPE":"U","NORAD_CAT_ID":56750,"ELEMENT_SET_NO":999,"REV_AT_EPOCH":15516,"BSTAR":0.00028309532,"MEAN_MOTION_DOT":9.057e-5,"MEAN_MOTION_DDOT":0}]
